{
  "type": "FeatureCollection",
  "features": [
    {
      "type": "Feature",
      "properties": {
        "norad_id": 34070,
        "name": "COSMOS 2251 DEB",
        "group": "cosmos-2251-debris",
        "lat": -9.42453705171203,
        "lon": 93.95260874649935,
        "alt_km": 650.843123814384,
        "timestamp": "2025-12-22T16:55:17.858491+00:00",
        "meta_object_name": "COSMOS 2251 DEB",
        "meta_object_id": "1993-036KH",
        "meta_epoch": "2025-12-21T13:24:18.092736",
        "meta_mean_motion": 14.7729737,
        "meta_eccentricity": 0.0018155,
        "meta_inclination": 74.0012,
        "meta_ra_of_asc_node": 98.9349,
        "meta_arg_of_pericenter": 215.9122,
        "meta_mean_anomaly": 159.1877,
        "meta_ephemeris_type": 0,
        "meta_classification_type": "U",
        "meta_norad_cat_id": 34070,
        "meta_element_set_no": 999,
        "meta_rev_at_epoch": 88741,
        "meta_bstar": 0.0022779,
        "meta_mean_motion_dot": 0.00016219,
        "meta_mean_motion_ddot": 0,
        "tle_line1": "1 34070U 93036KH  25355.55854274  .00016219  00000+0  22779-2 0  9992",
        "tle_line2": "2 34070  74.0012  98.9349 0018155 215.9122 159.1877 14.77297370887417"
      },
      "geometry": {
        "type": "Point",
        "coordinates": [
          93.95260874649935,
          -9.42453705171203
        ]
      }
    },
    {
      "type": "Feature",
      "properties": {
        "norad_id": 34114,
        "name": "COSMOS 2251 DEB",
        "group": "cosmos-2251-debris",
        "lat": 4.883710826746649,
        "lon": -156.45008459465276,
        "alt_km": 738.0552134725003,
        "timestamp": "2025-12-22T16:55:17.858502+00:00",
        "meta_object_name": "COSMOS 2251 DEB",
        "meta_object_id": "1993-036KK",
        "meta_epoch": "2025-12-21T04:09:10.753632",
        "meta_mean_motion": 14.56477831,
        "meta_eccentricity": 0.00478914,
        "meta_inclination": 74.0582,
        "meta_ra_of_asc_node": 27.8513,
        "meta_arg_of_pericenter": 19.5405,
        "meta_mean_anomaly": 45.4164,
        "meta_ephemeris_type": 0,
        "meta_classification_type": "U",
        "meta_norad_cat_id": 34114,
        "meta_element_set_no": 999,
        "meta_rev_at_epoch": 87924,
        "meta_bstar": 0.0010113335,
        "meta_mean_motion_dot": 4.54e-05,
        "meta_mean_motion_ddot": 0,
        "tle_line1": "1 34114U 93036KK  25355.17304113  .00004540  00000+0  10113-2 0  9994",
        "tle_line2": "2 34114  74.0582  27.8513 0047891  19.5405  45.4164 14.56477831879240"
      },
      "geometry": {
        "type": "Point",
        "coordinates": [
          -156.45008459465276,
          4.883710826746649
        ]
      }
    },
    {
      "type": "Feature",
      "properties": {
        "norad_id": 34115,
        "name": "COSMOS 2251 DEB",
        "group": "cosmos-2251-debris",
        "lat": 34.20811387596654,
        "lon": -126.4631279406871,
        "alt_km": 607.8889706480795,
        "timestamp": "2025-12-22T16:55:17.858512+00:00",
        "meta_object_name": "COSMOS 2251 DEB",
        "meta_object_id": "1993-036KL",
        "meta_epoch": "2025-12-22T00:32:02.247072",
        "meta_mean_motion": 14.79601673,
        "meta_eccentricity": 0.00289334,
        "meta_inclination": 74.0054,
        "meta_ra_of_asc_node": 223.6386,
        "meta_arg_of_pericenter": 44.3783,
        "meta_mean_anomaly": 315.9704,
        "meta_ephemeris_type": 0,
        "meta_classification_type": "U",
        "meta_norad_cat_id": 34115,
        "meta_element_set_no": 999,
        "meta_rev_at_epoch": 89549,
        "meta_bstar": 0.00082188257,
        "meta_mean_motion_dot": 6.174e-05,
        "meta_mean_motion_ddot": 0,
        "tle_line1": "1 34115U 93036KL  25356.02224823  .00006174  00000+0  82188-3 0  9996",
        "tle_line2": "2 34115  74.0054 223.6386 0028933  44.3783 315.9704 14.79601673895498"
      },
      "geometry": {
        "type": "Point",
        "coordinates": [
          -126.4631279406871,
          34.20811387596654
        ]
      }
    },
    {
      "type": "Feature",
      "properties": {
        "norad_id": 34116,
        "name": "COSMOS 2251 DEB",
        "group": "cosmos-2251-debris",
        "lat": 49.64644974461966,
        "lon": -35.704244260047254,
        "alt_km": 714.0899199808091,
        "timestamp": "2025-12-22T16:55:17.858523+00:00",
        "meta_object_name": "COSMOS 2251 DEB",
        "meta_object_id": "1993-036KM",
        "meta_epoch": "2025-12-21T22:43:55.543296",
        "meta_mean_motion": 14.53027637,
        "meta_eccentricity": 0.00118306,
        "meta_inclination": 74.0396,
        "meta_ra_of_asc_node": 165.4082,
        "meta_arg_of_pericenter": 241.5718,
        "meta_mean_anomaly": 243.1834,
        "meta_ephemeris_type": 0,
        "meta_classification_type": "U",
        "meta_norad_cat_id": 34116,
        "meta_element_set_no": 999,
        "meta_rev_at_epoch": 88620,
        "meta_bstar": 0.00077325065,
        "meta_mean_motion_dot": 3.169e-05,
        "meta_mean_motion_ddot": 0,
        "tle_line1": "1 34116U 93036KM  25355.94717064  .00003169  00000+0  77325-3 0  9999",
        "tle_line2": "2 34116  74.0396 165.4082 0011830 241.5718 243.1834 14.53027637886200"
      },
      "geometry": {
        "type": "Point",
        "coordinates": [
          -35.704244260047254,
          49.64644974461966
        ]
      }
    },
    {
      "type": "Feature",
      "properties": {
        "norad_id": 34117,
        "name": "COSMOS 2251 DEB",
        "group": "cosmos-2251-debris",
        "lat": -28.895040486864396,
        "lon": 154.50454989757952,
        "alt_km": 802.581715164978,
        "timestamp": "2025-12-22T16:55:17.858533+00:00",
        "meta_object_name": "COSMOS 2251 DEB",
        "meta_object_id": "1993-036KN",
        "meta_epoch": "2025-12-22T04:16:50.183040",
        "meta_mean_motion": 14.40047914,
        "meta_eccentricity": 0.00549431,
        "meta_inclination": 74.0394,
        "meta_ra_of_asc_node": 326.3893,
        "meta_arg_of_pericenter": 40.0969,
        "meta_mean_anomaly": 320.4221,
        "meta_ephemeris_type": 0,
        "meta_classification_type": "U",
        "meta_norad_cat_id": 34117,
        "meta_element_set_no": 999,
        "meta_rev_at_epoch": 88259,
        "meta_bstar": 0.00061201119,
        "meta_mean_motion_dot": 1.938e-05,
        "meta_mean_motion_ddot": 0,
        "tle_line1": "1 34117U 93036KN  25356.17835860  .00001938  00000+0  61201-3 0  9999",
        "tle_line2": "2 34117  74.0394 326.3893 0054943  40.0969 320.4221 14.40047914882592"
      },
      "geometry": {
        "type": "Point",
        "coordinates": [
          154.50454989757952,
          -28.895040486864396
        ]
      }
    },
    {
      "type": "Feature",
      "properties": {
        "norad_id": 34118,
        "name": "COSMOS 2251 DEB",
        "group": "cosmos-2251-debris",
        "lat": 55.80503001661818,
        "lon": -105.80067238981552,
        "alt_km": 537.2291137346538,
        "timestamp": "2025-12-22T16:55:17.858543+00:00",
        "meta_object_name": "COSMOS 2251 DEB",
        "meta_object_id": "1993-036KP",
        "meta_epoch": "2025-12-22T02:52:25.784832",
        "meta_mean_motion": 14.9423226,
        "meta_eccentricity": 0.00600908,
        "meta_inclination": 73.9511,
        "meta_ra_of_asc_node": 230.318,
        "meta_arg_of_pericenter": 58.165,
        "meta_mean_anomaly": 93.962,
        "meta_ephemeris_type": 0,
        "meta_classification_type": "U",
        "meta_norad_cat_id": 34118,
        "meta_element_set_no": 999,
        "meta_rev_at_epoch": 89316,
        "meta_bstar": 0.0014639243,
        "meta_mean_motion_dot": 0.0001627,
        "meta_mean_motion_ddot": 0,
        "tle_line1": "1 34118U 93036KP  25356.11974288  .00016270  00000+0  14639-2 0  9999",
        "tle_line2": "2 34118  73.9511 230.3180 0060090  58.1650  93.9620 14.94232260893161"
      },
      "geometry": {
        "type": "Point",
        "coordinates": [
          -105.80067238981552,
          55.80503001661818
        ]
      }
    },
    {
      "type": "Feature",
      "properties": {
        "norad_id": 34120,
        "name": "COSMOS 2251 DEB",
        "group": "cosmos-2251-debris",
        "lat": -67.97796482916999,
        "lon": 153.73837078188157,
        "alt_km": 923.8170063398657,
        "timestamp": "2025-12-22T16:55:17.858554+00:00",
        "meta_object_name": "COSMOS 2251 DEB",
        "meta_object_id": "1993-036KR",
        "meta_epoch": "2025-12-22T00:40:01.394688",
        "meta_mean_motion": 13.98693899,
        "meta_eccentricity": 0.01823593,
        "meta_inclination": 73.9903,
        "meta_ra_of_asc_node": 200.1324,
        "meta_arg_of_pericenter": 25.7536,
        "meta_mean_anomaly": 92.7049,
        "meta_ephemeris_type": 0,
        "meta_classification_type": "U",
        "meta_norad_cat_id": 34120,
        "meta_element_set_no": 999,
        "meta_rev_at_epoch": 86110,
        "meta_bstar": 0.00027390464,
        "meta_mean_motion_dot": 4.3e-06,
        "meta_mean_motion_ddot": 0,
        "tle_line1": "1 34120U 93036KR  25356.02779392  .00000430  00000+0  27390-3 0  9991",
        "tle_line2": "2 34120  73.9903 200.1324 0182359  25.7536  92.7049 13.98693899861103"
      },
      "geometry": {
        "type": "Point",
        "coordinates": [
          153.73837078188157,
          -67.97796482916999
        ]
      }
    }
  ]
}